[{"OBJECT_NAME":"OBJECT A","OBJECT_ID":"2023-189A","EPOCH":"2026-03-09T22:59:06.381600","MEAN_MOTION":15.32403275,"ECCENTRICITY":0.00094831,"INCLINATION":97.4458,"RA_OF_ASC_NODE":86.5997,"ARG_OF_PERICENTER":249.5377,"MEAN_ANOMALY":110.4847,"EPHEMERIS_TYPE":0,"CLASSIFICATION_TYPE":"U","NORAD_CAT_ID":58502,"ELEMENT_SET_NO":999,"REV_AT_EPOCH":12601,"BSTAR":0.00019874471,"MEAN_MOTION_DOT":6.146e-5,"MEAN_MOTION_DDOT":0},{"OBJECT_NAME":"STARLINK-35129","OBJECT_ID":"2025-235V","EPOCH":"2026-03-09T17:08:49.359552","MEAN_MOTION":15.30211666,"ECCENTRICITY":0.00011276,"INCLINATION":53.1573,"RA_OF_ASC_NODE":245.2668,"ARG_OF_PERICENTER":24.1531,"MEAN_ANOMALY":335.9522,"EPHEMERIS_TYPE":0,"CLASSIFICATION_TYPE":"U","NORAD_CAT_ID":66077,"ELEMENT_SET_NO":999,"REV_AT_EPOCH":2292,"BSTAR":0.0012837578,"MEAN_MOTION_DOT":0.0003787,"MEAN_MOTION_DDOT":0}]
